Landsat3
1 10702U 78026A   25182.84904013 -.00000210  00000-0 -11903-3 0  9992
2 10702  99.0159 138.8308 0015106  29.7648  24.3268 13.96950576412569